{"type": "FeatureCollection", "features": [ {"type": "Feature", "properties": {"norad_id": 66623, "name": "STARLINK-35920", "group": "last-30-days", "lat": 40.73043486945564, "lon": 7.036759825233509, "alt_km": 321.03110027920866, "timestamp": "2025-12-04T13:51:59.228557+00:00", "meta": {"OBJECT_NAME": "STARLINK-35920", "OBJECT_ID": "2025-271G", "EPOCH": "2025-12-04T07:16:23.450016", "MEAN_MOTION": 15.81850392, "ECCENTRICITY": 6.071e-05, "INCLINATION": 53.157, "RA_OF_ASC_NODE": 228.6293, "ARG_OF_PERICENTER": 350.3064, "MEAN_ANOMALY": 9.7947, "EPHEMERIS_TYPE": 0, "CLASSIFICATION_TYPE": "U", "NORAD_CAT_ID": 66623, "ELEMENT_SET_NO": 999, "REV_AT_EPOCH": 288, "BSTAR": -0.0027545921, "MEAN_MOTION_DOT": -0.0053575, "MEAN_MOTION_DDOT": 0}, "tle": {"line1": "1 66623U 25271G   25338.30304919 -.00535750  00000+0 -27546-2 0  9992", "line2": "2 66623  53.1570 228.6293 0000607 350.3064   9.7947 15.81850392  2888"}}, "geometry": {"type": "Point", "coordinates": [7.036759825233509, 40.73043486945564]}}, {"type": "Feature", "properties": {"norad_id": 66624, "name": "STARLINK-35927", "group": "last-30-days", "lat": 41.88031931064707, "lon": 5.009877926594395, "alt_km": 319.01602298888974, "timestamp": "2025-12-04T13:51:59.228568+00:00", "meta": {"OBJECT_NAME": "STARLINK-35927", "OBJECT_ID": "2025-271H", "EPOCH": "2025-12-04T07:16:54.480576", "MEAN_MOTION": 15.81910494, "ECCENTRICITY": 0.00016208, "INCLINATION": 53.1573, "RA_OF_ASC_NODE": 228.6322, "ARG_OF_PERICENTER": 101.6107, "MEAN_ANOMALY": 258.5098, "EPHEMERIS_TYPE": 0, "CLASSIFICATION_TYPE": "U", "NORAD_CAT_ID": 66624, "ELEMENT_SET_NO": 999, "REV_AT_EPOCH": 288, "BSTAR": -0.0017186993, "MEAN_MOTION_DOT": -0.00342988, "MEAN_MOTION_DDOT": 0}, "tle": {"line1": "1 66624U 25271H   25338.30340834 -.00342988  00000+0 -17187-2 0  9998", "line2": "2 66624  53.1573 228.6322 0001620 101.6107 258.5098 15.81910494  2887"}}, "geometry": {"type": "Point", "coordinates": [5.009877926594395, 41.88031931064707]}}, {"type": "Feature", "properties": {"norad_id": 66625, "name": "STARLINK-35929", "group": "last-30-days", "lat": 39.301147352642516, "lon": 9.385064575099689, "alt_km": 322.821196582363, "timestamp": "2025-12-04T13:51:59.228580+00:00", "meta": {"OBJECT_NAME": "STARLINK-35929", "OBJECT_ID": "2025-271J", "EPOCH": "2025-12-04T07:15:46.674720", "MEAN_MOTION": 15.81719286, "ECCENTRICITY": 0.00046373, "INCLINATION": 53.157, "RA_OF_ASC_NODE": 228.6265, "ARG_OF_PERICENTER": 13.0688, "MEAN_ANOMALY": 347.0455, "EPHEMERIS_TYPE": 0, "CLASSIFICATION_TYPE": "U", "NORAD_CAT_ID": 66625, "ELEMENT_SET_NO": 999, "REV_AT_EPOCH": 288, "BSTAR": -0.0037945008, "MEAN_MOTION_DOT": -0.00719346, "MEAN_MOTION_DDOT": 0}, "tle": {"line1": "1 66625U 25271J   25338.30262355 -.00719346  00000+0 -37945-2 0  9990", "line2": "2 66625  53.1570 228.6265 0004637  13.0688 347.0455 15.81719286  2889"}}, "geometry": {"type": "Point", "coordinates": [9.385064575099689, 39.301147352642516]}}, {"type": "Feature", "properties": {"norad_id": 66626, "name": "STARLINK-35902", "group": "last-30-days", "lat": 37.462911873503096, "lon": 12.168776279025842, "alt_km": 320.5891409877131, "timestamp": "2025-12-04T13:51:59.228591+00:00", "meta": {"OBJECT_NAME": "STARLINK-35902", "OBJECT_ID": "2025-271K", "EPOCH": "2025-12-04T07:15:09.067392", "MEAN_MOTION": 15.81999171, "ECCENTRICITY": 0.0002043, "INCLINATION": 53.1567, "RA_OF_ASC_NODE": 228.6237, "ARG_OF_PERICENTER": 244.6282, "MEAN_ANOMALY": 115.4529, "EPHEMERIS_TYPE": 0, "CLASSIFICATION_TYPE": "U", "NORAD_CAT_ID": 66626, "ELEMENT_SET_NO": 999, "REV_AT_EPOCH": 288, "BSTAR": -0.000204285, "MEAN_MOTION_DOT": -0.00042991, "MEAN_MOTION_DDOT": 0}, "tle": {"line1": "1 66626U 25271K   25338.30218828 -.00042991  00000+0 -20429-3 0  9992", "line2": "2 66626  53.1567 228.6237 0002043 244.6282 115.4529 15.81999171  2888"}}, "geometry": {"type": "Point", "coordinates": [12.168776279025842, 37.462911873503096]}}, {"type": "Feature", "properties": {"norad_id": 66627, "name": "STARLINK-35904", "group": "last-30-days", "lat": 36.056314539573364, "lon": 14.147987056053305, "alt_km": 323.4457191907504, "timestamp": "2025-12-04T13:51:59.228600+00:00", "meta": {"OBJECT_NAME": "STARLINK-35904", "OBJECT_ID": "2025-271L", "EPOCH": "2025-12-04T07:14:32.665344", "MEAN_MOTION": 15.81754279, "ECCENTRICITY": 0.00049774, "INCLINATION": 53.1565, "RA_OF_ASC_NODE": 228.6202, "ARG_OF_PERICENTER": 9.6313, "MEAN_ANOMALY": 350.4805, "EPHEMERIS_TYPE": 0, "CLASSIFICATION_TYPE": "U", "NORAD_CAT_ID": 66627, "ELEMENT_SET_NO": 999, "REV_AT_EPOCH": 284, "BSTAR": -0.0026856011, "MEAN_MOTION_DOT": -0.00521766, "MEAN_MOTION_DDOT": 0}, "tle": {"line1": "1 66627U 25271L   25338.30176696 -.00521766  00000+0 -26856-2 0  9990", "line2": "2 66627  53.1565 228.6202 0004977   9.6313 350.4805 15.81754279  2843"}}, "geometry": {"type": "Point", "coordinates": [14.147987056053305, 36.056314539573364]}}, {"type": "Feature", "properties": {"norad_id": 66628, "name": "STARLINK-35862", "group": "last-30-days", "lat": 34.306137557534576, "lon": 16.457398083521568, "alt_km": 321.9672918078377, "timestamp": "2025-12-04T13:51:59.228610+00:00", "meta": {"OBJECT_NAME": "STARLINK-35862", "OBJECT_ID": "2025-271M", "EPOCH": "2025-12-04T07:13:58.388736", "MEAN_MOTION": 15.8197509, "ECCENTRICITY": 0.00023358, "INCLINATION": 53.1565, "RA_OF_ASC_NODE": 228.6171, "ARG_OF_PERICENTER": 333.1882, "MEAN_ANOMALY": 26.902, "EPHEMERIS_TYPE": 0, "CLASSIFICATION_TYPE": "U", "NORAD_CAT_ID": 66628, "ELEMENT_SET_NO": 999, "REV_AT_EPOCH": 288, "BSTAR": 9.7657011e-05, "MEAN_MOTION_DOT": 0.0001962, "MEAN_MOTION_DDOT": 0}, "tle": {"line1": "1 66628U 25271M   25338.30137024  .00019620  00000+0  97657-4 0  9991", "line2": "2 66628  53.1565 228.6171 0002335 333.1882  26.9020 15.81975090  2885"}}, "geometry": {"type": "Point", "coordinates": [16.457398083521568, 34.306137557534576]}}, {"type": "Feature", "properties": {"norad_id": 66629, "name": "STARLINK-35956", "group": "last-30-days", "lat": 32.76921483214651, "lon": 18.36542432696749, "alt_km": 321.25383767965286, "timestamp": "2025-12-04T13:51:59.228620+00:00", "meta": {"OBJECT_NAME": "STARLINK-35956", "OBJECT_ID": "2025-271N", "EPOCH": "2025-12-04T07:13:22.143936", "MEAN_MOTION": 15.81896535, "ECCENTRICITY": 0.0003243, "INCLINATION": 53.1566, "RA_OF_ASC_NODE": 228.6147, "ARG_OF_PERICENTER": 228.6855, "MEAN_ANOMALY": 131.3889, "EPHEMERIS_TYPE": 0, "CLASSIFICATION_TYPE": "U", "NORAD_CAT_ID": 66629, "ELEMENT_SET_NO": 999, "REV_AT_EPOCH": 288, "BSTAR": -0.00058905608, "MEAN_MOTION_DOT": -0.00120996, "MEAN_MOTION_DDOT": 0}, "tle": {"line1": "1 66629U 25271N   25338.30095074 -.00120996  00000+0 -58906-3 0  9994", "line2": "2 66629  53.1566 228.6147 0003243 228.6855 131.3889 15.81896535  2887"}}, "geometry": {"type": "Point", "coordinates": [18.36542432696749, 32.76921483214651]}}, {"type": "Feature", "properties": {"norad_id": 66630, "name": "STARLINK-35949", "group": "last-30-days", "lat": 31.156666916984573, "lon": 20.260126169495845, "alt_km": 321.8210324354741, "timestamp": "2025-12-04T13:51:59.228632+00:00", "meta": {"OBJECT_NAME": "STARLINK-35949", "OBJECT_ID": "2025-271P", "EPOCH": "2025-12-04T04:10:50.194848", "MEAN_MOTION": 15.82120498, "ECCENTRICITY": 8.388e-05, "INCLINATION": 53.1563, "RA_OF_ASC_NODE": 229.2447, "ARG_OF_PERICENTER": 170.6966, "MEAN_ANOMALY": 189.4073, "EPHEMERIS_TYPE": 0, "CLASSIFICATION_TYPE": "U", "NORAD_CAT_ID": 66630, "ELEMENT_SET_NO": 999, "REV_AT_EPOCH": 286, "BSTAR": -0.0035658701, "MEAN_MOTION_DOT": -0.00689961, "MEAN_MOTION_DDOT": 0}, "tle": {"line1": "1 66630U 25271P   25338.17419207 -.00689961  00000+0 -35659-2 0  9990", "line2": "2 66630  53.1563 229.2447 0000838 170.6966 189.4073 15.82120498  2868"}}, "geometry": {"type": "Point", "coordinates": [20.260126169495845, 31.156666916984573]}}, {"type": "Feature", "properties": {"norad_id": 66631, "name": "STARLINK-35965", "group": "last-30-days", "lat": 29.98825520591512, "lon": 21.5767870272814, "alt_km": 321.67840354955206, "timestamp": "2025-12-04T13:51:59.228643+00:00", "meta": {"OBJECT_NAME": "STARLINK-35965", "OBJECT_ID": "2025-271Q", "EPOCH": "2025-12-04T07:12:21.035808", "MEAN_MOTION": 15.81776671, "ECCENTRICITY": 0.00011348, "INCLINATION": 53.1568, "RA_OF_ASC_NODE": 228.6092, "ARG_OF_PERICENTER": 128.5518, "MEAN_ANOMALY": 231.5607, "EPHEMERIS_TYPE": 0, "CLASSIFICATION_TYPE": "U", "NORAD_CAT_ID": 66631, "ELEMENT_SET_NO": 999, "REV_AT_EPOCH": 288, "BSTAR": -0.0020617817, "MEAN_MOTION_DOT": -0.004058, "MEAN_MOTION_DDOT": 0}, "tle": {"line1": "1 66631U 25271Q   25338.30024347 -.00405800  00000+0 -20618-2 0  9990", "line2": "2 66631  53.1568 228.6092 0001134 128.5518 231.5607 15.81776671  2881"}}, "geometry": {"type": "Point", "coordinates": [21.5767870272814, 29.98825520591512]}}, {"type": "Feature", "properties": {"norad_id": 66632, "name": "STARLINK-35973", "group": "last-30-days", "lat": 28.40214230491715, "lon": 23.290550584798208, "alt_km": 322.2955429281783, "timestamp": "2025-12-04T13:51:59.228654+00:00", "meta": {"OBJECT_NAME": "STARLINK-35973", "OBJECT_ID": "2025-271R", "EPOCH": "2025-12-04T07:11:45.966048", "MEAN_MOTION": 15.81738935, "ECCENTRICITY": 0.00035675, "INCLINATION": 53.1565, "RA_OF_ASC_NODE": 228.606, "ARG_OF_PERICENTER": 219.2368, "MEAN_ANOMALY": 140.8397, "EPHEMERIS_TYPE": 0, "CLASSIFICATION_TYPE": "U", "NORAD_CAT_ID": 66632, "ELEMENT_SET_NO": 999, "REV_AT_EPOCH": 284, "BSTAR": -0.002324746, "MEAN_MOTION_DOT": -0.0045453, "MEAN_MOTION_DDOT": 0}, "tle": {"line1": "1 66632U 25271R   25338.29983757 -.00454530  00000+0 -23247-2 0  9993", "line2": "2 66632  53.1565 228.6060 0003567 219.2368 140.8397 15.81738935  2842"}}, "geometry": {"type": "Point", "coordinates": [23.290550584798208, 28.40214230491715]}}]}